ONEWEB-0527             
1 54642U 22166A   22347.91667824  .00052641  00000+0  52722-2 0  9996
2 54642  86.5170 156.1498 0006970 217.3185   0.9300 14.91122390  1301
ONEWEB-0528             
1 54643U 22166B   22347.91667824  .00053512  00000+0  53605-2 0  9996
2 54643  86.5183 156.1506 0006921 218.1435 359.7762 14.91110062  1309
ONEWEB-0539             
1 54644U 22166C   22347.91667824  .00053367  00000+0  53087-2 0  9999
2 54644  86.5164 156.1474 0008275 215.6072   7.1541 14.91383673  1305
ONEWEB-0540             
1 54645U 22166D   22347.91667824  .00053567  00000+0  53812-2 0  9998
2 54645  86.5149 156.1484 0006720 221.8492 354.1325 14.90997683  1304
ONEWEB-0542             
1 54646U 22166E   22347.91667824  .00052146  00000+0  50668-2 0  9997
2 54646  86.5169 156.1456 0011688 226.9830  12.0646 14.92303725  1303
ONEWEB-0545             
1 54647U 22166F   22347.91667824  .00053524  00000+0  53691-2 0  9998
2 54647  86.5151 156.1487 0006834 220.0056 356.9538 14.91055354  1302
ONEWEB-0580             
1 54648U 22166G   22347.91667824  .00052642  00000+0  51494-2 0  9998
2 54648  86.5157 156.1475 0011037 222.4700  11.9905 14.92039622  1306
ONEWEB-0582             
1 54649U 22166H   22348.25001157  .00017691  00000+0  17588-2 0  9999
2 54649  86.5166 155.9994 0009164 214.2867   0.2369 14.91560358  1535
